Street,City,State,Zip
2180 Chestnut Street,Clearwater,FL,34623
2177 Agriculture Lane,Miami,FL,33144
2846 Terry Lane,Melbourne,FL,32935
1107 Holt Street,Boynton Beach,FL,33435
1428 Mulberry Lane,West Palm Beach,FL,33411
610 Sycamore Fork Road,Boca Raton,FL,33486
1559 Tyler Avenue,Marathon,FL,33050
36 Chardonnay Drive,Gainesville,FL,32601
187 Rhapsody Street,Ocala,FL,34471
4503 Terry Lane,Longwood,FL,32750
482 Collins Street,Tampa,FL,33602
3584 Rinehart Road,Miami,FL,33179
4564 Alpha Avenue,Macclenny,FL,32066
2187 Arrowood Drive,Jacksonville,FL,32216
2569 Saints Alley,Tampa,FL,33610
163 Grand Avenue,Orlando,FL,32805
1804 Franklin Avenue,Port Orange,FL,32129
604 Saints Alley,Plant City,FL,33566
1714 Tyler Avenue,Miami,FL,33128
4730 Village View Drive,Fort Myers,FL,33905
3477 Isaacs Creek Road,Jacksonville,IL,62650
2848 Westwood Avenue,Levittown,NY,11765
1293 Tipple Road,Philadelphia,PA,19145
713 Brookside Drive,Birmingham,AL,35222
3890 Clinton Street,Little Rock,AR,72211
116 Heins Street,Knoxville,TN,37901
1112 West Carmen Street,Tampa,FL,33606
10320 S Medallion Drive,Cincinnati,OH,45241
412 N Walnut Avenue,Broken Arrow,OK,74012
925 N. Oaklawn Avenue,Elmhurst,IL,60126
4919 Goff Avenue,Grand Rapids,MI,49503
